[{"OBJECT_NAME":"STARLINK-5733","OBJECT_ID":"2023-083BB","EPOCH":"2026-03-09T22:00:01.999584","MEAN_MOTION":15.06149978,"ECCENTRICITY":5.681e-5,"INCLINATION":43.0007,"RA_OF_ASC_NODE":67.2319,"ARG_OF_PERICENTER":318.587,"MEAN_ANOMALY":202.4702,"EPHEMERIS_TYPE":0,"CLASSIFICATION_TYPE":"U","NORAD_CAT_ID":56925,"ELEMENT_SET_NO":999,"REV_AT_EPOCH":577,"BSTAR":0.0040606094,"MEAN_MOTION_DOT":0.00060736,"MEAN_MOTION_DDOT":0},{"OBJECT_NAME":"PSLV DEB","OBJECT_ID":"2001-049CY","EPOCH":"2026-03-09T18:20:37.296384","MEAN_MOTION":15.08389698,"ECCENTRICITY":0.00190632,"INCLINATION":97.9861,"RA_OF_ASC_NODE":156.2845,"ARG_OF_PERICENTER":340.3269,"MEAN_ANOMALY":19.722,"EPHEMERIS_TYPE":0,"CLASSIFICATION_TYPE":"U","NORAD_CAT_ID":27152,"ELEMENT_SET_NO":999,"REV_AT_EPOCH":30598,"BSTAR":0.00053695108,"MEAN_MOTION_DOT":8.318e-5,"MEAN_MOTION_DDOT":0}]
